[{"OBJECT_NAME":"STARLINK-4590","OBJECT_ID":"2022-104U","EPOCH":"2026-03-09T16:35:23.694144","MEAN_MOTION":15.08834999,"ECCENTRICITY":0.00012377,"INCLINATION":53.2171,"RA_OF_ASC_NODE":234.2281,"ARG_OF_PERICENTER":91.6865,"MEAN_ANOMALY":268.4269,"EPHEMERIS_TYPE":0,"CLASSIFICATION_TYPE":"U","NORAD_CAT_ID":53606,"ELEMENT_SET_NO":999,"REV_AT_EPOCH":19563,"BSTAR":-5.199602e-6,"MEAN_MOTION_DOT":-3.71e-6,"MEAN_MOTION_DDOT":0},{"OBJECT_NAME":"FENGYUN 1C DEB","OBJECT_ID":"1999-025DCL","EPOCH":"2026-03-08T01:32:38.043744","MEAN_MOTION":14.80481308,"ECCENTRICITY":0.0218035,"INCLINATION":98.8149,"RA_OF_ASC_NODE":16.0796,"ARG_OF_PERICENTER":161.8742,"MEAN_ANOMALY":199.0399,"EPHEMERIS_TYPE":0,"CLASSIFICATION_TYPE":"U","NORAD_CAT_ID":33603,"ELEMENT_SET_NO":999,"REV_AT_EPOCH":119,"BSTAR":0.0001936534,"MEAN_MOTION_DOT":2.149e-5,"MEAN_MOTION_DDOT":0}]
